CCSDS_OMM_VERS = 2.0
CREATION_DATE  = 
ORIGINATOR     = 

OBJECT_NAME    = COSMOS 1933
OBJECT_ID      = 1988-020A
CENTER_NAME    = EARTH
REF_FRAME      = TEME
TIME_SYSTEM    = UTC
MEAN_ELEMENT_THEORY = SGP/SGP4

EPOCH          = 2026-02-12T14:34:16.319712
MEAN_MOTION    = 15.17762709
ECCENTRICITY   = .00028741
INCLINATION    = 82.5117
RA_OF_ASC_NODE = 275.7289
ARG_OF_PERICENTER = 303.4528
MEAN_ANOMALY   = 56.6430

EPHEMERIS_TYPE = 0
CLASSIFICATION_TYPE = U
NORAD_CAT_ID   = 18958
ELEMENT_SET_NO = 999
REV_AT_EPOCH   = 4642
BSTAR          = .17130484E-3
MEAN_MOTION_DOT = .3488E-4
MEAN_MOTION_DDOT = 0

CCSDS_OMM_VERS = 2.0
CREATION_DATE  = 
ORIGINATOR     = 

OBJECT_NAME    = SL-3 R/B
OBJECT_ID      = 1988-032B
CENTER_NAME    = EARTH
REF_FRAME      = TEME
TIME_SYSTEM    = UTC
MEAN_ELEMENT_THEORY = SGP/SGP4

EPOCH          = 2026-02-12T13:56:10.132512
MEAN_MOTION    = 15.19583647
ECCENTRICITY   = .00250094
INCLINATION    = 97.5149
RA_OF_ASC_NODE = 26.9349
ARG_OF_PERICENTER = 325.4109
MEAN_ANOMALY   = 34.5498

EPHEMERIS_TYPE = 0
CLASSIFICATION_TYPE = U
NORAD_CAT_ID   = 19046
ELEMENT_SET_NO = 999
REV_AT_EPOCH   = 4829
BSTAR          = .28400282E-3
MEAN_MOTION_DOT = .6023E-4
MEAN_MOTION_DDOT = 0

CCSDS_OMM_VERS = 2.0
CREATION_DATE  = 
ORIGINATOR     = 

OBJECT_NAME    = SL-16 R/B
OBJECT_ID      = 1988-039B
CENTER_NAME    = EARTH
REF_FRAME      = TEME
TIME_SYSTEM    = UTC
MEAN_ELEMENT_THEORY = SGP/SGP4

EPOCH          = 2026-02-12T11:20:49.895808
MEAN_MOTION    = 14.19612035
ECCENTRICITY   = .00212106
INCLINATION    = 71.0146
RA_OF_ASC_NODE = 121.8720
ARG_OF_PERICENTER = 12.6622
MEAN_ANOMALY   = 347.5031

EPHEMERIS_TYPE = 0
CLASSIFICATION_TYPE = U
NORAD_CAT_ID   = 19120
ELEMENT_SET_NO = 999
REV_AT_EPOCH   = 95480
BSTAR          = .77182685E-4
MEAN_MOTION_DOT = .115E-5
MEAN_MOTION_DDOT = 0

CCSDS_OMM_VERS = 2.0
CREATION_DATE  = 
ORIGINATOR     = 

OBJECT_NAME    = COSMOS 1953
OBJECT_ID      = 1988-050A
CENTER_NAME    = EARTH
REF_FRAME      = TEME
TIME_SYSTEM    = UTC
MEAN_ELEMENT_THEORY = SGP/SGP4

EPOCH          = 2026-02-12T10:01:07.713696
MEAN_MOTION    = 15.28021413
ECCENTRICITY   = .00108485
INCLINATION    = 82.5089
RA_OF_ASC_NODE = 183.6478
ARG_OF_PERICENTER = 208.4876
MEAN_ANOMALY   = 151.5772

EPHEMERIS_TYPE = 0
CLASSIFICATION_TYPE = U
NORAD_CAT_ID   = 19210
ELEMENT_SET_NO = 999
REV_AT_EPOCH   = 3392
BSTAR          = .43981046E-3
MEAN_MOTION_DOT = .12075E-3
MEAN_MOTION_DDOT = 0

CCSDS_OMM_VERS = 2.0
CREATION_DATE  = 
ORIGINATOR     = 

OBJECT_NAME    = SL-8 R/B
OBJECT_ID      = 1988-053B
CENTER_NAME    = EARTH
REF_FRAME      = TEME
TIME_SYSTEM    = UTC
MEAN_ELEMENT_THEORY = SGP/SGP4

EPOCH          = 2026-02-12T11:46:21.656352
MEAN_MOTION    = 14.38900602
ECCENTRICITY   = .00205534
INCLINATION    = 74.0485
RA_OF_ASC_NODE = 158.9108
ARG_OF_PERICENTER = 342.7324
MEAN_ANOMALY   = 89.5646

EPHEMERIS_TYPE = 0
CLASSIFICATION_TYPE = U
NORAD_CAT_ID   = 19257
ELEMENT_SET_NO = 999
REV_AT_EPOCH   = 97297
BSTAR          = .93288422E-4
MEAN_MOTION_DOT = .262E-5
MEAN_MOTION_DDOT = 0

CCSDS_OMM_VERS = 2.0
CREATION_DATE  = 
ORIGINATOR     = 

OBJECT_NAME    = COSMOS 1975
OBJECT_ID      = 1988-093A
CENTER_NAME    = EARTH
REF_FRAME      = TEME
TIME_SYSTEM    = UTC
MEAN_ELEMENT_THEORY = SGP/SGP4

EPOCH          = 2026-02-12T05:56:45.330432
MEAN_MOTION    = 15.27626334
ECCENTRICITY   = .0010348
INCLINATION    = 82.5218
RA_OF_ASC_NODE = 143.2089
ARG_OF_PERICENTER = 258.3250
MEAN_ANOMALY   = 101.6828

EPHEMERIS_TYPE = 0
CLASSIFICATION_TYPE = U
NORAD_CAT_ID   = 19573
ELEMENT_SET_NO = 999
REV_AT_EPOCH   = 1552
BSTAR          = .37628E-3
MEAN_MOTION_DOT = .10209E-3
MEAN_MOTION_DDOT = 0

CCSDS_OMM_VERS = 2.0
CREATION_DATE  = 
ORIGINATOR     = 

OBJECT_NAME    = SL-14 R/B
OBJECT_ID      = 1988-093B
CENTER_NAME    = EARTH
REF_FRAME      = TEME
TIME_SYSTEM    = UTC
MEAN_ELEMENT_THEORY = SGP/SGP4

EPOCH          = 2026-02-12T13:12:03.131136
MEAN_MOTION    = 14.85627253
ECCENTRICITY   = .00221232
INCLINATION    = 82.5278
RA_OF_ASC_NODE = 65.6498
ARG_OF_PERICENTER = 119.3413
MEAN_ANOMALY   = 357.1088

EPHEMERIS_TYPE = 0
CLASSIFICATION_TYPE = U
NORAD_CAT_ID   = 19574
ELEMENT_SET_NO = 999
REV_AT_EPOCH   = 99730
BSTAR          = .52306089E-4
MEAN_MOTION_DOT = .479E-5
MEAN_MOTION_DDOT = 0

CCSDS_OMM_VERS = 2.0
CREATION_DATE  = 
ORIGINATOR     = 

OBJECT_NAME    = SL-16 R/B
OBJECT_ID      = 1988-102B
CENTER_NAME    = EARTH
REF_FRAME      = TEME
TIME_SYSTEM    = UTC
MEAN_ELEMENT_THEORY = SGP/SGP4

EPOCH          = 2026-02-12T11:25:55.100352
MEAN_MOTION    = 14.16149533
ECCENTRICITY   = .00126276
INCLINATION    = 70.9982
RA_OF_ASC_NODE = 204.5440
ARG_OF_PERICENTER = 42.8694
MEAN_ANOMALY   = 317.3411

EPHEMERIS_TYPE = 0
CLASSIFICATION_TYPE = U
NORAD_CAT_ID   = 19650
ELEMENT_SET_NO = 999
REV_AT_EPOCH   = 92332
BSTAR          = .17818538E-3
MEAN_MOTION_DOT = .305E-5
MEAN_MOTION_DDOT = 0

CCSDS_OMM_VERS = 2.0
CREATION_DATE  = 
ORIGINATOR     = 

OBJECT_NAME    = INTERCOSMOS 24
OBJECT_ID      = 1989-080A
CENTER_NAME    = EARTH
REF_FRAME      = TEME
TIME_SYSTEM    = UTC
MEAN_ELEMENT_THEORY = SGP/SGP4

EPOCH          = 2026-02-12T05:26:35.820672
MEAN_MOTION    = 12.59522190
ECCENTRICITY   = .1187824
INCLINATION    = 82.6062
RA_OF_ASC_NODE = 120.9789
ARG_OF_PERICENTER = 351.9576
MEAN_ANOMALY   = 6.3851

EPHEMERIS_TYPE = 0
CLASSIFICATION_TYPE = U
NORAD_CAT_ID   = 20261
ELEMENT_SET_NO = 999
REV_AT_EPOCH   = 66359
BSTAR          = .15659E-3
MEAN_MOTION_DOT = .541E-5
MEAN_MOTION_DDOT = 0

CCSDS_OMM_VERS = 2.0
CREATION_DATE  = 
ORIGINATOR     = 

OBJECT_NAME    = SL-14 R/B
OBJECT_ID      = 1989-080C
CENTER_NAME    = EARTH
REF_FRAME      = TEME
TIME_SYSTEM    = UTC
MEAN_ELEMENT_THEORY = SGP/SGP4

EPOCH          = 2026-02-12T10:19:15.363552
MEAN_MOTION    = 12.50461886
ECCENTRICITY   = .12295262
INCLINATION    = 82.5949
RA_OF_ASC_NODE = 189.4004
ARG_OF_PERICENTER = 242.5056
MEAN_ANOMALY   = 104.5890

EPHEMERIS_TYPE = 0
CLASSIFICATION_TYPE = U
NORAD_CAT_ID   = 20262
ELEMENT_SET_NO = 999
REV_AT_EPOCH   = 65699
BSTAR          = .14984986E-3
MEAN_MOTION_DOT = .496E-5
MEAN_MOTION_DDOT = 0

CCSDS_OMM_VERS = 2.0
CREATION_DATE  = 
ORIGINATOR     = 

OBJECT_NAME    = DELTA 1 R/B
OBJECT_ID      = 1989-089B
CENTER_NAME    = EARTH
REF_FRAME      = TEME
TIME_SYSTEM    = UTC
MEAN_ELEMENT_THEORY = SGP/SGP4

EPOCH          = 2026-02-12T13:58:27.738336
MEAN_MOTION    = 14.50642007
ECCENTRICITY   = .00685132
INCLINATION    = 97.0724
RA_OF_ASC_NODE = 255.0111
ARG_OF_PERICENTER = 200.9246
MEAN_ANOMALY   = 158.9146

EPHEMERIS_TYPE = 0
CLASSIFICATION_TYPE = U
NORAD_CAT_ID   = 20323
ELEMENT_SET_NO = 999
REV_AT_EPOCH   = 89209
BSTAR          = .10072301E-3
MEAN_MOTION_DOT = .372E-5
MEAN_MOTION_DDOT = 0

CCSDS_OMM_VERS = 2.0
CREATION_DATE  = 
ORIGINATOR     = 

OBJECT_NAME    = ARIANE 40 R/B
OBJECT_ID      = 1990-005H
CENTER_NAME    = EARTH
REF_FRAME      = TEME
TIME_SYSTEM    = UTC
MEAN_ELEMENT_THEORY = SGP/SGP4

EPOCH          = 2026-02-12T14:06:53.163648
MEAN_MOTION    = 14.39853446
ECCENTRICITY   = .00088908
INCLINATION    = 98.3141
RA_OF_ASC_NODE = 104.9907
ARG_OF_PERICENTER = 281.0798
MEAN_ANOMALY   = 78.9390

EPHEMERIS_TYPE = 0
CLASSIFICATION_TYPE = U
NORAD_CAT_ID   = 20443
ELEMENT_SET_NO = 999
REV_AT_EPOCH   = 88919
BSTAR          = .99666063E-4
MEAN_MOTION_DOT = .271E-5
MEAN_MOTION_DDOT = 0

